[{"OBJECT_NAME":"STARLINK-33806","OBJECT_ID":"2025-087AC","EPOCH":"2026-03-09T17:04:07.523616","MEAN_MOTION":15.30204646,"ECCENTRICITY":9.161e-5,"INCLINATION":53.1573,"RA_OF_ASC_NODE":219.3962,"ARG_OF_PERICENTER":67.9403,"MEAN_ANOMALY":292.1695,"EPHEMERIS_TYPE":0,"CLASSIFICATION_TYPE":"U","NORAD_CAT_ID":63723,"ELEMENT_SET_NO":999,"REV_AT_EPOCH":4920,"BSTAR":0.00096211424,"MEAN_MOTION_DOT":0.00028248,"MEAN_MOTION_DDOT":0},{"OBJECT_NAME":"CZ-4C R\/B","OBJECT_ID":"2024-089B","EPOCH":"2026-03-09T16:45:24.409152","MEAN_MOTION":15.30115456,"ECCENTRICITY":0.00763424,"INCLINATION":97.7122,"RA_OF_ASC_NODE":107.3872,"ARG_OF_PERICENTER":235.0262,"MEAN_ANOMALY":124.3793,"EPHEMERIS_TYPE":0,"CLASSIFICATION_TYPE":"U","NORAD_CAT_ID":59729,"ELEMENT_SET_NO":999,"REV_AT_EPOCH":10143,"BSTAR":0.00030010198,"MEAN_MOTION_DOT":9.476e-5,"MEAN_MOTION_DDOT":0}]
